[{"OBJECT_NAME":"LEMUR-2-KARENDARRELL","OBJECT_ID":"2025-135BU","EPOCH":"2026-03-09T21:08:31.963200","MEAN_MOTION":14.98475386,"ECCENTRICITY":0.00078103,"INCLINATION":97.7605,"RA_OF_ASC_NODE":185.4061,"ARG_OF_PERICENTER":183.1489,"MEAN_ANOMALY":176.9686,"EPHEMERIS_TYPE":0,"CLASSIFICATION_TYPE":"U","NORAD_CAT_ID":64841,"ELEMENT_SET_NO":999,"REV_AT_EPOCH":3913,"BSTAR":0.00091115502,"MEAN_MOTION_DOT":0.00010849,"MEAN_MOTION_DDOT":0},{"OBJECT_NAME":"COSMOS 375 DEB","OBJECT_ID":"1970-091AX","EPOCH":"2026-03-08T20:29:59.773920","MEAN_MOTION":14.03576179,"ECCENTRICITY":0.05047105,"INCLINATION":62.6067,"RA_OF_ASC_NODE":236.2052,"ARG_OF_PERICENTER":173.5052,"MEAN_ANOMALY":187.2884,"EPHEMERIS_TYPE":0,"CLASSIFICATION_TYPE":"U","NORAD_CAT_ID":19949,"ELEMENT_SET_NO":999,"REV_AT_EPOCH":86548,"BSTAR":0.0018818841,"MEAN_MOTION_DOT":9.26e-5,"MEAN_MOTION_DDOT":0}]
